[{"OBJECT_NAME":"HONGHU 2","OBJECT_ID":"2023-193C","EPOCH":"2026-03-09T23:21:07.139520","MEAN_MOTION":15.21543878,"ECCENTRICITY":0.00399876,"INCLINATION":97.2779,"RA_OF_ASC_NODE":62.3901,"ARG_OF_PERICENTER":264.1736,"MEAN_ANOMALY":95.4941,"EPHEMERIS_TYPE":0,"CLASSIFICATION_TYPE":"U","NORAD_CAT_ID":58555,"ELEMENT_SET_NO":999,"REV_AT_EPOCH":8691,"BSTAR":0.0061775359,"MEAN_MOTION_DOT":0.00144707,"MEAN_MOTION_DDOT":0},{"OBJECT_NAME":"STARLINK-32691","OBJECT_ID":"2025-003Q","EPOCH":"2026-03-09T23:05:22.700256","MEAN_MOTION":15.27604405,"ECCENTRICITY":5.889e-5,"INCLINATION":43.0004,"RA_OF_ASC_NODE":287.389,"ARG_OF_PERICENTER":6.0113,"MEAN_ANOMALY":354.0745,"EPHEMERIS_TYPE":0,"CLASSIFICATION_TYPE":"U","NORAD_CAT_ID":62501,"ELEMENT_SET_NO":999,"REV_AT_EPOCH":6670,"BSTAR":0.0012775534,"MEAN_MOTION_DOT":0.00035087,"MEAN_MOTION_DDOT":0}]
